OSCAR 7 (AO-7)          
1 07530U 74089B   26156.25337361 -.00000049  00000+0 -14506-4 0  9997
2 07530 101.9901 169.3754 0012431 152.3188 270.3033 12.53697882359020
PHASE 3B (AO-10)        
1 14129U 83058B   26156.71565058 -.00000155  00000+0  00000+0 0  9998
2 14129  25.9038 221.4654 6014762 112.5116 319.5552  2.05872928295259
UOSAT 2 (UO-11)         
1 14781U 84021B   26156.47522209  .00001340  00000+0  14207-3 0  9991
2 14781  97.8051 122.1815 0006589 213.4593 146.6210 14.90754084255383
LUSAT (LO-19)           
1 20442U 90005G   26156.32126850  .00000125  00000+0  61458-4 0  9998
2 20442  98.8853 177.7996 0010571 238.2188 121.7967 14.34119464900691
EYESAT A (AO-27)        
1 22825U 93061C   26156.46242272  .00000116  00000+0  61062-4 0  9993
2 22825  98.6882 223.8798 0009296 130.1900 230.0097 14.30939099705326
ITAMSAT (IO-26)         
1 22826U 93061D   26156.09581524  .00000110  00000+0  58344-4 0  9992
2 22826  98.6830 223.4296 0009997 116.5147 243.7062 14.31365384705580
RADIO ROSTO (RS15)      
1 23439U 94085A   26156.67508940 -.00000042  00000+0 -17083-6 0  9998
2 23439  64.8186 321.8348 0155597   6.0031 354.2712 11.27583592294605
JAS-2 (FO-29)           
1 24278U 96046B   26156.48148801 -.00000028  00000+0  47757-5 0  9997
2 24278  98.5250   6.9568 0350683 126.7306 236.6586 13.53273625471586
TECHSAT 1B (GO-32)      
1 25397U 98043D   26156.47428677  .00000072  00000+0  51302-4 0  9998
2 25397  99.0065 148.9377 0000406 200.1436 159.9726 14.24426083449664
ISS (ZARYA)             
1 25544U 98067A   26156.64419214  .00008809  00000+0  16425-3 0  9996
2 25544  51.6330 357.2373 0007055 136.8284 223.3259 15.49619643569968
PCSAT (NO-44)           
1 26931U 01043C   26156.56496487  .00000150  00000+0  87024-4 0  9998
2 26931  67.0513 274.3313 0006118 264.0547  95.9858 14.31951869288786
SAUDISAT 1C (SO-50)     
1 27607U 02058C   26156.35454122  .00001035  00000+0  13927-3 0  9996
2 27607  64.5503 165.5947 0075495 264.6340  94.6150 14.83020070262706
CUTE-1 (CO-55)          
1 27844U 03031E   26154.54951729  .00000336  00000+0  16425-3 0  9994
2 27844  98.6736 163.2800 0008690 219.4250 140.6297 14.24327019189732
CUBESAT XI-IV (CO-57)   
1 27848U 03031J   26156.28822976  .00000257  00000+0  13217-3 0  9990
2 27848  98.6767 164.7189 0008404 234.4870 125.5525 14.23614275189686
MOZHAETS 4 (RS22)       
1 27939U 03042A   26156.74839424  .00000617  00000+0  10343-3 0  9997
2 27939  98.3467 340.7841 0010313 310.4951 178.3494 14.73445231213867
CUBESAT XI-V            
1 28895U 05043F   26156.37597231  .00001533  00000+0  24897-3 0  9995
2 28895  98.2974 311.7509 0012981 240.3240 119.6675 14.72598573100013
CUTE-1.7+APD II (CO-65) 
1 32785U 08021C   26156.71379230  .00005593  00000+0  35426-3 0  9992
2 32785  97.8271 137.8952 0010521  72.3212 287.9164 15.09336767983466
SEEDS II (CO-66)        
1 32791U 08021J   26156.44822116  .00019038  00000+0  61158-3 0  9995
2 32791  97.7518 153.7894 0002814  37.2994 322.8442 15.32333038985498
YUBILEINY (RS30)        
1 32953U 08025A   26156.67057961  .00000049  00000+0  28362-3 0  9994
2 32953  82.5044   2.6055 0019367 339.6935  20.3373 12.43178997818263
KKS-1 (KISEKI)          
1 33499U 09002H   26156.58484049  .00001558  00000+0  19805-3 0  9995
2 33499  98.1193  78.8433 0007287 338.6329  21.4578 14.83093359934471
SWISSCUBE               
1 35932U 09051B   26156.46919882  .00001141  00000+0  23506-3 0  9999
2 35932  98.4043  64.1532 0005431 246.3597 113.7034 14.62458714887444
BEESAT-1                
1 35933U 09051C   26156.54100500  .00000964  00000+0  20332-3 0  9994
2 35933  98.3972  63.8860 0003903 263.9063  96.1693 14.61701276887482
ITUPSAT1                
1 35935U 09051E   26155.69953963  .00000958  00000+0  20796-3 0  9997
2 35935  98.4056  62.2366 0006134 280.9538  79.0971 14.60421767886916
XIWANG-1 (HOPE-1)       
1 36122U 09072B   26156.69201671  .00000173  00000+0  56977-3 0  9991
2 36122 100.4027 110.7083 0006782 260.7747  99.2599 13.16439180791495
O/OREOS (USA 219)       
1 37224U 10062C   26156.14141230  .00002983  00000+0  28734-3 0  9991
2 37224  71.9702 107.6232 0012355  89.4979 270.7607 14.93690973114847
JUGNU                   
1 37839U 11058B   26156.31650772  .00000440  00000+0  90425-4 0  9997
2 37839  19.9622  20.5431 0018506 305.3603 210.9987 14.13773506757345
SRMSAT                  
1 37841U 11058D   26156.64627256  .00000376  00000+0  60191-4 0  9992
2 37841  19.9704 129.3229 0011943  77.5338  79.4380 14.11573181756184
STRAND-1                
1 39090U 13009E   26156.49876751  .00000302  00000+0  11583-3 0  9996
2 39090  98.3919 337.0211 0007392 265.4490  94.5853 14.37156205695389
ZACUBE-1 (TSHEPISOSAT)  
1 39417U 13066B   26156.67567771  .00004480  00000+0  34902-3 0  9992
2 39417  97.8105 118.9505 0039931 288.3391  71.3492 15.01111253679002
GOMX-1                  
1 39430U 13066Q   26156.67797558  .00002696  00000+0  40750-3 0  9990
2 39430  97.6487 357.8667 0130049 114.0772 247.4104 14.69416201668223
